IRIDIUM 26              
1 24903U 97043A   25260.92670311  .00000396  00000+0  12657-3 0  9996
2 24903  86.3901  71.6287 0002302  94.0651 266.0810 14.37208707470069
IRIDIUM 22              
1 24907U 97043E   25260.93336684  .00000348  00000+0  11319-3 0  9994
2 24907  86.3901  75.2482 0002257  89.1208 271.0247 14.36014320470089
DUMMY MASS 1            
1 24925U 97048A   25260.94541763  .00000400  00000+0  41405-4 0  9995
2 24925  86.3287  92.4213 0007136 158.0490 202.1043 14.87054474518913
DUMMY MASS 2            
1 24926U 97048B   25260.92302608  .00000392  00000+0  40785-4 0  9997
2 24926  86.3289  94.0580 0007400 170.9958 189.1401 14.86805908518688
IRIDIUM 29              
1 24944U 97051A   25260.92302532  .00000369  00000+0  11887-3 0  9991
2 24944  86.3907 104.9942 0002070  82.7762 277.3671 14.36535182466588
IRIDIUM 33              
1 24946U 97051C   25260.93734331  .00000276  00000+0  90099-4 0  9990
2 24946  86.3821 104.2561 0009439 126.1783 234.0288 14.34940871466045
IRIDIUM 28              
1 24948U 97051E   25260.62910337  .00000302  00000+0  94380-4 0  9997
2 24948  86.3909 102.5784 0002493  98.1317 262.0164 14.37442288467122
IRIDIUM 36              
1 24967U 97056C   25260.64749556  .00000292  00000+0  90561-4 0  9993
2 24967  86.3978 134.1906 0002395  86.4873 273.6599 14.37671672465505
